OBJECT_NAME,OBJECT_ID,EPOCH,MEAN_MOTION,ECCENTRICITY,INCLINATION,RA_OF_ASC_NODE,ARG_OF_PERICENTER,MEAN_ANOMALY,EPHEMERIS_TYPE,CLASSIFICATION_TYPE,NORAD_CAT_ID,ELEMENT_SET_NO,REV_AT_EPOCH,BSTAR,MEAN_MOTION_DOT,MEAN_MOTION_DDOT
POLYITAN-1,2014-033AJ,2026-07-15T00:58:39.811584,15.34216227,.00079404,98.0932,224.9562,64.6154,295.5908,0,U,40042,999,65786,.34568491E-3,.11373E-3,0
TIGRISAT,2014-033AK,2026-07-15T09:53:09.453408,14.85249877,.00486192,97.7864,345.7834,343.6307,16.3336,0,U,40043,999,64981,.88930323E-4,.723E-5,0
AEROCUBE 6A,2014-033AM,2026-07-15T09:47:25.900224,14.98344247,.00363067,97.7247,3.0629,280.2284,79.4845,0,U,40045,999,65084,.25769008E-3,.3049E-4,0
AEROCUBE 6B,2014-033AN,2026-07-15T10:47:18.960864,14.99799188,.00380688,97.7200,2.9520,269.1514,90.5347,0,U,40046,999,65099,.20314307E-3,.2488E-4,0
CANX-4,2014-034C,2026-07-15T02:48:59.289696,14.81311066,.00114247,98.3083,72.4512,283.1173,76.8763,0,U,40055,999,64866,.61209325E-4,.42E-5,0
CANX-5,2014-034D,2026-07-15T10:52:36.323616,14.81328706,.00114138,98.3085,72.8445,282.1246,77.8687,0,U,40056,999,63952,.59894875E-4,.41E-5,0
UKUBE-1,2014-037F,2026-07-15T06:16:21.848736,15.13950237,.00032846,98.4242,202.4925,87.8667,272.2938,0,U,40074,999,65280,.22031185E-3,.3915E-4,0
BRITE-PL2 (HEWELIUSZ),2014-049B,2026-07-15T13:23:13.221024,14.94687803,.00143041,97.9120,308.7813,21.0628,339.1178,0,U,40119,999,64568,.52887493E-4,.515E-5,0
AEROCUBE 5C,2015-058B,2026-07-15T07:57:55.936224,14.91576607,.01323429,64.7654,175.0228,52.3884,308.9155,0,U,40965,999,36985,.15961253E-3,.1717E-4,0
AEROCUBE 7,2015-058C,2026-07-15T04:19:50.877408,14.95913679,.01220529,64.7612,157.1214,50.7559,310.4311,0,U,40966,999,37014,.22456729E-3,.2744E-4,0
FOX-1A (AO-85),2015-058D,2026-07-15T09:19:38.094240,14.91088896,.01323818,64.7725,191.3328,45.7352,315.4532,0,U,40967,999,11777,.15413123E-3,.1629E-4,0
SINOD-D 1,2015-058E,2026-07-15T14:57:07.416000,14.96090937,.01210673,64.7735,169.8489,41.9967,319.0351,0,U,40968,999,12091,.23458403E-3,.2882E-4,0
SNAP-3 ALICE,2015-058G,2026-07-15T10:35:25.313280,15.67258837,.00247478,64.7493,5.7298,348.0540,12.0019,0,U,40970,999,12130,.88763816E-3,.98504E-3,0
LMRST-SAT,2015-058H,2026-07-15T10:02:18.870144,14.90704097,.01339193,64.7732,187.6328,47.7261,313.5114,0,U,40971,999,11776,.15033247E-3,.1573E-4,0
SNAP-3 EDDIE,2015-058J,2026-07-15T12:52:00.974496,15.68684163,.00256213,64.7405,355.9050,350.4878,9.5783,0,U,40972,999,12346,.10092619E-2,.11924E-2,0
PROPCUBE 3,2015-058K,2026-07-15T07:36:52.720704,14.94416422,.01257875,64.7671,164.6351,48.9550,312.2353,0,U,40973,999,11900,.19608339E-3,.2294E-4,0
BISONSAT,2015-058L,2026-07-15T02:59:39.822144,15.16931314,.00821134,64.7585,83.2653,35.8976,324.7626,0,U,40974,999,11985,.3906765E-3,.8237E-4,0
SNAP-3 JIMI,2015-058M,2026-07-15T05:05:09.571776,15.02609366,.01078569,64.7648,131.0828,44.3121,316.6566,0,U,40975,999,11843,.29202391E-3,.4237E-4,0
PROPCUBE 1 (FLORA),2015-058N,2026-07-15T09:34:46.466688,14.89328269,.01324947,64.7718,207.7912,50.0073,311.2581,0,U,40976,999,12046,.12616349E-3,.1235E-4,0
SINOD-D 3,2015-058P,2026-07-15T10:05:21.778080,14.94174606,.01210793,64.7703,187.6434,47.0451,314.0739,0,U,40977,999,11897,.1913337E-3,.2192E-4,0
RAVAN,2016-067B,2026-07-15T06:34:11.634528,15.57471545,.00022281,97.9845,89.1482,215.7136,144.3969,0,U,41849,999,53206,.46534794E-3,.34156E-3,0
CELTEE 1,2016-067C,2026-07-15T01:21:56.817504,15.19940045,.00023557,98.0635,64.5246,110.5351,249.6135,0,U,41850,999,53011,.13646239E-3,.2855E-4,0
OPTICUBE 04,2016-067D,2026-07-15T12:18:21.494592,15.09773007,.00161557,98.0673,50.2724,26.7712,333.4346,0,U,41851,999,52944,.65055624E-4,.981E-5,0
AEROCUBE 8D,2016-067E,2026-07-15T10:38:18.575520,15.24771509,.0004549,98.0641,68.7664,55.8282,304.3385,0,U,41852,999,53037,.16320115E-3,.3962E-4,0
AEROCUBE 8C,2016-067F,2026-07-14T14:39:15.433056,15.25019050,.0004333,98.0521,65.0631,343.7365,16.3731,0,U,41853,999,53024,.16881E-3,.4132E-4,0
CORVUS BC2,2017-042X,2026-07-15T10:13:21.033696,15.06456928,.00134373,97.4091,356.6849,22.3190,337.8619,0,U,42846,999,49131,.81218838E-4,.1141E-4,0
CORVUS BC1,2017-042Y,2026-07-15T10:01:06.879936,15.06619897,.00116501,97.4121,357.5089,359.4379,0.6833,0,U,42847,999,49134,.87710996E-4,.1242E-4,0
MAKERSAT 0,2017-073D,2026-07-15T13:58:30.824544,15.33017186,.01054544,97.4578,79.3342,170.8735,189.4458,0,U,43016,999,47081,.32937368E-3,.12472E-3,0
SIRION PATHFINDER-2,2018-099B,2026-07-15T01:26:55.373568,15.14776742,.00084483,97.4238,244.4570,191.9909,168.1124,0,U,43759,999,41684,.11789942E-3,.2124E-4,0
CORVUS BC4,2018-099K,2026-07-15T08:52:07.642560,15.12703044,.00065072,97.4051,238.5262,260.1573,99.8924,0,U,43767,999,41666,.11076452E-3,.1876E-4,0
